0 COSMOS 2232
1 22321U 93006A   13282.45701546 -.00000622  00000-0  00000+0 0  6476
2 22321 067.4949 111.6983 5950554 209.8526 053.9309 02.00593723151642
0 COSMOS 2232
1 22321U 93006A   13283.51260926  .00000000  00000-0  10000-3 0  6492
2 22321 067.4951 111.6483 5950115 209.8172 096.2046 02.00590937151675
0 COSMOS 2232
1 22321U 93006A   13283.55162115 -.00000613  00000-0  00000+0 0  6482
2 22321 067.4948 111.6299 5950866 209.8349 124.3765 02.00592315151678
0 COSMOS 2232
1 22321U 93006A   13286.98885736 -.00000551  00000-0  00000+0 0  6495
2 22321 067.4944 111.4149 5951835 209.7788 086.4659 02.00587846151739
0 COSMOS 2232
1 22321U 93006A   13290.03651318 -.00000570  00000-0  00000+0 0  6506
2 22321 067.4935 111.2239 5952684 209.7286 127.1863 02.00583872151806
0 COSMOS 2232
1 22321U 93006A   13291.13141039 -.00000599  00000-0  00000+0 0  6514
2 22321 067.4931 111.1553 5952977 209.7103 197.8048 02.00582421151823
0 COSMOS 2232
1 22321U 93006A   13292.74800130 -.00000643  00000-0  00000+0 0  6527
2 22321 067.4927 111.0540 5953415 209.6830 285.1265 02.00580237151855
0 COSMOS 2232
1 22321U 93006A   13294.03309932 -.00000664  00000-0  00000+0 0  6539
2 22321 067.4927 110.9737 5953783 209.6616 133.0733 02.00578412151887
